      2.10          N: GNSS NAV DATA                        RINEX VERSION / TYPE
fic2rin                                 05/10/2020 00:17:39 PGM / RUN BY / DATE
                                                            END OF HEADER
 1 20  5  9  1 59 44.0-3.762925043702e-04-7.389644451905e-12 0.000000000000e+00
    1.400000000000e+01-1.037812500000e+02 3.819801967227e-09-2.079117868885e+00
   -5.573034286499e-06 9.808540693484e-03 1.215375959873e-05 5.153633165359e+03
    5.255840000000e+05 1.061707735062e-07-2.835501568399e+00-8.568167686462e-08
    9.803056839523e-01 1.516562500000e+02 7.713927869659e-01-7.471739799382e-09
    3.328710082708e-10 1.000000000000e+00 2.104000000000e+03 0.000000000000e+00
    2.400000000000e+00 0.000000000000e+00 5.122274160385e-09 1.400000000000e+01
    5.184000000000e+05 4.000000000000e+00
22 20  5  9  1 59 44.0-7.828860543668e-04 1.136868377216e-12 0.000000000000e+00
    2.000000000000e+01 3.237500000000e+01 5.600233272195e-09-8.163121708157e-01
    1.709908246994e-06 7.215294637717e-03 8.031725883484e-06 5.153501234055e+03
    5.255840000000e+05-1.043081283569e-07-1.880933281632e+00-2.421438694000e-08
    9.301967196385e-01 2.085937500000e+02-1.171498017252e+00-8.583571825934e-09
    6.564559154524e-10 1.000000000000e+00 2.104000000000e+03 0.000000000000e+00
    2.400000000000e+00 0.000000000000e+00-1.816079020500e-08 2.000000000000e+01
    5.184000000000e+05 4.000000000000e+00
23 20  5  9  1 59 44.0-1.157326623797e-04 3.069544618484e-12 0.000000000000e+00
    1.400000000000e+01-2.609375000000e+01 5.215574392465e-09-1.855985257487e+00
   -1.411885023117e-06 1.420059532393e-02 5.798414349556e-06 5.155144065857e+03
    5.255840000000e+05 1.993030309677e-07-7.719970423527e-01-4.097819328308e-08
    9.433514560204e-01 2.525625000000e+02-2.193481789630e+00-8.116409509606e-09
   -4.385896975928e-10 1.000000000000e+00 2.104000000000e+03 0.000000000000e+00
    2.400000000000e+00 6.300000000000e+01-2.048909664154e-08 1.400000000000e+01
    5.184000000000e+05 4.000000000000e+00
 2 20  5  9  2  0  0.0-4.527727141976e-04-6.252776074689e-12 0.000000000000e+00
    1.800000000000e+01-1.173437500000e+02 4.282321233011e-09-1.832987052982e+00
   -5.755573511124e-06 1.971243647859e-02 1.148879528046e-05 5.153698875427e+03
    5.256000000000e+05 3.036111593246e-07-2.911371997827e+00 3.296881914139e-07
    9.593081940083e-01 1.510937500000e+02-1.631912599802e+00-7.618531628137e-09
    1.832219176426e-10 1.000000000000e+00 2.104000000000e+03 0.000000000000e+00
    2.400000000000e+00 0.000000000000e+00-1.769512891769e-08 1.800000000000e+01
    5.184000000000e+05 4.000000000000e+00
 5 20  5  9  2  0  0.0-1.231720671058e-05-6.821210263297e-13 0.000000000000e+00
    2.000000000000e+01 2.081250000000e+01 5.143785687892e-09 8.479371520316e-01
    1.393258571625e-06 5.832921364345e-03 7.918104529381e-06 5.153647695541e+03
    5.256000000000e+05 7.450580596924e-08-1.826780892208e+00 7.636845111847e-08
    9.520816405590e-01 2.224375000000e+02 7.894740140873e-01-8.304631635527e-09
    5.110927176346e-10 1.000000000000e+00 2.104000000000e+03 0.000000000000e+00
    2.400000000000e+00 0.000000000000e+00-1.117587089539e-08 2.000000000000e+01
    5.184000000000e+05 4.000000000000e+00
 3 20  5  9  2  0  0.0-1.697600819170e-04-1.193711796077e-11 0.000000000000e+00
    3.700000000000e+01 2.993750000000e+01 4.752697968947e-09-3.116965109445e+00
    1.462176442146e-06 2.782364375889e-03 7.592141628265e-06 5.153553495407e+03
    5.256000000000e+05-5.215406417847e-08-1.795132039095e+00-5.215406417847e-08
    9.651611361382e-01 2.330000000000e+02 6.950438194792e-01-7.994975879979e-09
    5.560945921433e-10 1.000000000000e+00 2.104000000000e+03 0.000000000000e+00
    2.400000000000e+00 0.000000000000e+00 1.862645149231e-09 3.700000000000e+01
    5.184000000000e+05 4.000000000000e+00
 7 20  5  9  2  0  0.0-2.767941914499e-04-8.640199666843e-12 0.000000000000e+00
    7.700000000000e+01 8.950000000000e+01 4.072669643038e-09-2.836161837456e+00
    4.375353455544e-06 1.375253160950e-02 1.291744410992e-05 5.153680492401e+03
    5.256000000000e+05 3.539025783539e-08 3.101871036694e-01-2.086162567139e-07
    9.537835804345e-01 1.246250000000e+02-2.400225098644e+00-7.535671033803e-09
   -3.160845947635e-10 1.000000000000e+00 2.104000000000e+03 0.000000000000e+00
    2.400000000000e+00 0.000000000000e+00-1.117587089539e-08 7.700000000000e+01
    5.184000000000e+05 4.000000000000e+00
29 20  5  9  2  0  0.0-9.994022548199e-05-8.981260180008e-12 0.000000000000e+00
    5.400000000000e+01-9.703125000000e+01 4.146601294017e-09 4.426527894426e-01
   -5.152076482773e-06 1.432005316019e-03 2.454966306686e-06 5.153587379456e+03
    5.256000000000e+05 4.470348358154e-08 2.462533677681e+00 1.862645149231e-09
    9.856432897822e-01 3.420312500000e+02 1.897907031492e+00-8.162840015051e-09
   -1.675069773380e-10 1.000000000000e+00 2.104000000000e+03 0.000000000000e+00
    2.400000000000e+00 0.000000000000e+00-9.778887033463e-09 5.400000000000e+01
    5.184000000000e+05 4.000000000000e+00
16 20  5  9  2  0  0.0-1.559406518936e-04-4.547473508865e-12 0.000000000000e+00
    9.300000000000e+01 1.070000000000e+02 4.136600877459e-09 9.226894190436e-01
    5.681067705154e-06 1.152198237833e-02 2.954155206680e-06 5.153760046005e+03
    5.256000000000e+05-1.490116119385e-07 1.434921660075e+00 1.341104507446e-07
    9.785334888990e-01 3.317500000000e+02 6.302928138599e-01-8.253915237271e-09
    1.985797002130e-10 1.000000000000e+00 2.104000000000e+03 0.000000000000e+00
    2.400000000000e+00 0.000000000000e+00-1.071020960808e-08 9.300000000000e+01
    5.184000000000e+05 4.000000000000e+00
 8 20  5  9  2  0  0.0-3.333995118737e-05-1.250555214938e-12 0.000000000000e+00
    8.800000000000e+01-9.862500000000e+01 4.555546899671e-09 1.965519165477e-01
   -5.036592483521e-06 5.344580160454e-03 2.054497599602e-06 5.153661314011e+03
    5.256000000000e+05 7.078051567078e-08 2.378378093634e+00-8.381903171539e-08
    9.696628291147e-01 3.427500000000e+02-8.318645640981e-02-8.423565161015e-09
   -1.557207721095e-10 1.000000000000e+00 2.104000000000e+03 0.000000000000e+00
    2.400000000000e+00 0.000000000000e+00 5.122274160385e-09 8.800000000000e+01
    5.184000000000e+05 4.000000000000e+00
 6 20  5  9  2  0  0.0-2.680551260710e-04-7.048583938740e-12 0.000000000000e+00
    1.030000000000e+02-1.153750000000e+02 3.893733618206e-09-1.942436813924e+00
   -5.844980478287e-06 1.954196719453e-03 1.254677772522e-05 5.153543107986e+03
    5.256000000000e+05-5.029141902924e-08-2.843740471399e+00 6.146728992462e-08
    9.798722257142e-01 1.487187500000e+02-1.066037440807e+00-7.571029649489e-09
    2.110802209099e-10 1.000000000000e+00 2.104000000000e+03 0.000000000000e+00
    3.400000000000e+00 0.000000000000e+00 4.190951585770e-09 1.030000000000e+02
    5.184000000000e+05 4.000000000000e+00
 4 20  5  9  2  0  0.0-8.683418855071e-05-5.002220859751e-12 0.000000000000e+00
    2.290000000000e+02-2.706250000000e+01 4.811271837355e-09-9.618911938520e-01
   -1.585111021996e-06 7.181677501649e-04 6.910413503647e-06 5.153679737091e+03
    5.256000000000e+05 1.862645149231e-08-7.158491741515e-01 1.490116119385e-08
    9.598679562046e-01 2.462500000000e+02-2.608671776805e+00-8.061050060806e-09
   -6.539558113130e-10 1.000000000000e+00 2.104000000000e+03 0.000000000000e+00
    2.400000000000e+00 0.000000000000e+00-4.190951585770e-09 7.410000000000e+02
    5.184000000000e+05 4.000000000000e+00
 9 20  5  9  2  0  0.0-2.136216498911e-04-7.389644451905e-12 0.000000000000e+00
    4.000000000000e+01-2.478125000000e+01 5.062353724495e-09 4.038890459542e-01
   -1.367181539536e-06 1.543331425637e-03 6.413087248802e-06 5.153728393555e+03
    5.256000000000e+05-2.980232238770e-08-7.636183867880e-01 1.490116119385e-08
    9.525410334089e-01 2.513125000000e+02 1.807048353880e+00-8.224628303067e-09
   -5.768097407267e-10 1.000000000000e+00 2.104000000000e+03 0.000000000000e+00
    2.400000000000e+00 0.000000000000e+00 1.396983861923e-09 4.000000000000e+01
    5.184000000000e+05 4.000000000000e+00
10 20  5  9  2  0  0.0-3.351569175720e-04-1.170974428533e-11 0.000000000000e+00
    8.900000000000e+01 2.371875000000e+01 4.758055334960e-09 2.090707334124e+00
    1.251697540283e-06 5.581248784438e-03 7.797032594681e-06 5.153662097931e+03
    5.256000000000e+05-2.160668373108e-07-1.798182537818e+00 1.862645149231e-09
    9.651146241208e-01 2.343125000000e+02-2.629769533691e+00-8.030691653399e-09
    5.507372261304e-10 1.000000000000e+00 2.104000000000e+03 0.000000000000e+00
    2.400000000000e+00 0.000000000000e+00 2.328306436539e-09 8.900000000000e+01
    5.184000000000e+05 4.000000000000e+00
14 20  5  9  2  0  0.0-1.427531242371e-05 2.614797267597e-12 0.000000000000e+00
    9.700000000000e+01-2.537500000000e+01 4.933419782451e-09-1.773426610908e-01
   -1.236796379089e-06 1.138049457222e-02 6.884336471558e-06 5.153634447098e+03
    5.256000000000e+05-9.313225746155e-08-6.678681046445e-01 8.754432201385e-08
    9.603834036865e-01 2.477812500000e+02-1.918678989207e+00-8.378920444240e-09
   -6.364550823374e-10 1.000000000000e+00 2.104000000000e+03 0.000000000000e+00
    2.400000000000e+00 0.000000000000e+00-9.778887033463e-09 9.700000000000e+01
    5.184000000000e+05 4.000000000000e+00
11 20  5  9  2  0  0.0-2.826596610248e-04 1.068656274583e-11 0.000000000000e+00
    6.700000000000e+01-1.433125000000e+02 5.386652947145e-09-2.588863490042e+00
   -7.228925824165e-06 1.593014667742e-02 7.649883627892e-06 5.153718738556e+03
    5.256000000000e+05 6.332993507385e-08 2.974606277777e+00 2.067536115646e-07
    9.129146056663e-01 1.994062500000e+02 1.979693757643e+00-8.250343659930e-09
   -6.357407668690e-11 1.000000000000e+00 2.104000000000e+03 0.000000000000e+00
    2.400000000000e+00 0.000000000000e+00-1.257285475731e-08 6.700000000000e+01
    5.184000000000e+05 4.000000000000e+00
